#cP2023  5 24  0  0  0.00000000      96 ORBIT IGS20 HLM  IGS
## 2263 259200.00000000   900.00000000 60088 0.0000000000000
+   32   G01G02G03G04G05G06G07G08G09G10G11G12G13G14G15G16G17
+        G18G19G20G21G22G23G24G25G26G27G28G29G30G31G32  0  0
+          0  0  0  0  0  0  0  0  0  0  0  0  0  0  0  0  0
+          0  0  0  0  0  0  0  0  0  0  0  0  0  0  0  0  0
+          0  0  0  0  0  0  0  0  0  0  0  0  0  0  0  0  0
++         2  2  2  2  2  2  2  2  2  2  2  2  2  3  2  2  2
++         2  2  2  2  2  2  2  3  2  2  2  2  2  2  2  0  0
++         0  0  0  0  0  0  0  0  0  0  0  0  0  0  0  0  0
++         0  0  0  0  0  0  0  0  0  0  0  0  0  0  0  0  0
++         0  0  0  0  0  0  0  0  0  0  0  0  0  0  0  0  0
%c G  cc GPS ccc cccc cccc cccc cccc ccccc ccccc ccccc ccccc
%c cc cc ccc ccc cccc cccc cccc cccc ccccc ccccc ccccc ccccc
%f  1.2500000  1.025000000  0.00000000000  0.000000000000000
%f  0.0000000  0.000000000  0.00000000000  0.000000000000000
%i    0    0    0    0      0      0      0      0         0
%i    0    0    0    0      0      0      0      0         0
/* RAPID ORBIT COMBINATION FROM WEIGHTED AVERAGE OF:        
/* cod emr esa gfz grg jpl ngs sio usn                      
/* REFERENCED TO IGS TIME (IGST) AND TO WEIGHTED MEAN POLE: 
/* PCV:IGS20_2233 OL/AL:FES2014b NONE     Y  ORB:CMB CLK:CMB
*  2023  5 24  3 45  0.00000000
PG01 -14246.853264   2324.904757  21963.696507    183.120124  7  5  4 107       
PG02 -15136.197345 -18326.959682  12761.253713   -593.066671  6  3  6  98       
PG03 -21772.616371  11040.475039  10181.282211   -293.991608  6  8  5  96       
PG04 -23215.688703   1599.294040 -12894.600848     49.395422  6  4  5 100       
PG05  16522.466287   3514.408654 -20699.972294   -128.374319  5  6  4  79       
PG06   4957.913658  26008.508167   1314.607696    587.592222  7  5  3  82       
PG07  -8316.422497  17962.903619 -17012.382316    170.637342  4  6  5  93       
PG08 -26024.894314  -6155.249551   1279.027051   -123.924180  6  3  5  88       
PG09 -15429.887726   9878.294703 -19315.013588   -152.042185  2  6  4  94       
PG10   6504.788211 -20499.933777  15553.072204    -38.208055  6  3  5 104       
PG11  12523.235786  19686.611016 -12721.231148   -208.191897  7  6    112       
PG12  22259.229916  -7325.991579  12141.848181   -379.798671  1  4  6  90       
PG13  22458.820411  13723.863067  -4495.861470    524.235659  2  7  4  76       
PG14  -9729.002511  20965.814925  12961.563805     67.150723  8 12 10  95       
PG15  26464.152382   3151.917253   1216.718978     42.327766  4  5  4  59       
PG16 -13865.020532  -8061.546780 -21543.454471   -498.296730  6  6  4  75       
PG17    137.657662  15810.560871  21755.485714    715.919747  4  7  5  81       
PG18   6279.177341 -20626.546923 -15407.476986   -278.929277  6  9  5  92       
PG19   9682.190703  17175.057463  17714.682455    321.009756  6  5  3 114       
PG20  10353.795423  11764.482919 -21422.403899    431.903247  5  7  3  88       
PG21 -16991.060436  -7125.386983  19972.026817    153.631217  6  6  5  95       
PG22 -12571.260015 -17230.985685  16378.847799    486.407821  5  8  7  97       
PG23  16066.918871 -20512.785340   4715.653235     26.762822  5  8  6  94       
PG24  16532.774078   1890.122881  20418.908707   -199.793163  6  3  6  72       
PG25  20013.061229 -17048.081986   2258.979067    444.963429 12  8  7 102       
PG26  -4081.521442 -17177.429357 -19864.825197    240.364550  6  6  5  97       
PG27 -21428.341571 -13154.213907  -9430.448093     31.066560  2  3  5  96       
PG28  -4751.350530 -25938.632645   3173.713690     79.966400  4  7  5  95       
PG29  18350.923205  -6156.566340 -18284.926029   -600.508040  5  4  6  89       
PG30  -1042.237493  24858.771396  -8791.838956   -515.422340  5  5  3 103       
PG31 -10730.907679 -22672.771278  -8213.069486   -216.729299  8  7  5  95       
PG32  -4018.777483 -16343.347264  20773.239905   -483.850280  2  7  3  98       
*  2023  5 24  4  0  0.00000000
PG01 -14866.040805   -162.173632  21708.957814    183.117684  7  4  5 111       
PG02 -15393.687950 -19544.653113  10329.174641   -593.062937  6  4  6  94       
PG03 -20965.725265   9971.700769  12656.626228   -293.980799  6  8  4 108       
PG04 -24434.524457   1015.701506 -10488.827020     49.404331  7  5  5  93       
PG05  14968.478424   5309.077435 -21480.865181   -128.375186  5  6  4  69       
PG06   4706.435712  25754.144738   4208.990139    587.591506  7  5  2  54       
PG07  -9053.448622  15945.170106 -18579.323645    170.628728  4  5  4 100       
PG08 -25964.215203  -6378.656103  -1549.234904   -123.925355  6  3  5  92       
PG09 -17451.683356   9248.437548 -17848.471579   -152.034516  2  6  4  95       
PG10   7775.387113 -21541.613609  13356.997012    -38.209299  6  2  5  94       
PG11  12601.720431  21015.627796 -10289.938160   -208.204679  7  7  1 103       
PG12  21214.829134  -6145.501578  14410.680560   -379.802946     4  6  88       
PG13  21782.812152  13661.735662  -7251.987456    524.238651  2  7  4  86       
PG14 -10885.851007  21710.596564  10582.873607     67.162079  9 12  9  98       
PG15  26454.718333   3469.192853  -1565.807176     42.330852  3  5  4  71       
PG16 -12024.209868  -9630.254877 -21967.418247   -498.293232  6  6  4  65       
PG17  -2167.818829  15075.859962  22182.922892    715.921102  5  7  5  73       
PG18   6882.057098 -18843.822795 -17328.143834   -278.943340  5  9  6  73       
PG19   7642.425282  16507.190141  19234.471589    321.014547  5  6  3 107       
PG20   8912.402386  13723.263372 -20916.868686    431.901569  5  7  4  82       
PG21 -17635.398422  -9101.203455  18597.026116    153.631215  6  7  5  93       
PG22 -10744.569755 -16722.442010  18145.561899    486.413442  4  8  7  59       
PG23  16489.968725 -20631.896243   1857.147451     26.765740  5  8  6  87       
PG24  17254.566797   4136.233435  19523.627726   -199.805451  6  4  5  65       
PG25  19905.831421 -16513.665927   5074.200973    444.965827 12  9  7  87       
PG26  -2520.345889 -18734.289336 -18642.654775    240.364060  6  7  6  65       
PG27 -20248.378037 -13023.799288 -11917.346028     31.059390     3  5  86       
PG28  -4359.731165 -25509.288011   5966.492607     79.968742  5  7  4  77       
PG29  20174.933704  -5389.250095 -16522.896489   -600.509275  5  3  6  92       
PG30  -1638.262943  23799.202933 -11277.156047   -515.420328  5  6  4  96       
PG31 -10634.493707 -23493.214220  -5493.039073   -216.729845  8  7  5  94       
PG32  -1702.587147 -15805.758287  21484.608887   -483.858400  2  7  2  81       
*  2023  5 24  4 15  0.00000000
PG01 -15606.685301  -2557.737501  21070.029337    183.115135  7  4  5 111       
PG02 -15605.482925 -20492.712441   7726.713251   -593.059370  6  5  6  95       
PG03 -20039.519579   8657.797266  14911.223735   -293.970107  7  8  4  92       
PG04 -25407.888626    563.150699  -7903.536453     49.413272  7  5  5  92       
PG05  13470.135134   7237.300232 -21898.496756   -128.376467  5  7  4  68       
PG06   4340.897607  25205.139827   7030.581948    587.590791  8  6  3  91       
PG07  -9937.871050  13813.246818 -19809.542022    170.620010  5  5  4  98       
PG08 -25604.696540  -6549.892931  -4351.487436   -123.926769  5  4  4 112       
PG09 -19323.676666   8756.019953 -16076.871011   -152.026859  3  6  4  91       
PG10   8816.237367 -22454.690488  10929.827985    -38.210507  6  3  5  97       
PG11  12673.915369  22063.706938  -7681.884694   -208.217473  7  7  2 109       
PG12  20058.361098  -4738.654525  16426.177165   -379.807008     5  6  93       
PG13  20819.215735  13534.800199  -9885.470228    524.243861  3  7  4  79       
PG14 -11812.248795  22308.716430   8020.656188     67.173426  9 12  8 132       
PG15  26151.849568   3763.273968  -4321.926397     42.334127  2  4  3  71       
PG16 -10248.160943 -11317.136087 -22024.686255   -498.290135  6  5  4  73       
PG17  -4535.261637  14463.347764  22243.260826    715.922368  5  7  5 115       
PG18   7639.879312 -16905.033410 -18948.894905   -278.957346  4  9  6  80       
PG19   5419.027843  15903.342730  20420.023699    321.019272  5  6  4 109       
PG20   7613.395135  15684.692247 -20051.286258    431.899843  5  6  5  80       
PG21 -18319.529719 -10882.812581  16923.905256    153.631489  7  7  6 103       
PG22  -8722.456688 -16261.861599  19612.142360    486.419324  3  8  7  75       
PG23  16696.494332 -20522.253237  -1033.624827     26.768592  5  9  6  86       
PG24  18032.427978   6228.909121  18285.535761   -199.817756  5  4  5  72       
PG25  19619.639244 -15733.261926   7800.029557    444.968196 11  8  7  98       
PG26  -1128.018004 -20242.682171 -17099.308558    240.363595  6  6  6  72       
PG27 -18801.898409 -12905.114551 -14205.994803     31.052283     2  5  90       
PG28  -3837.546431 -24810.049198   8656.551790     79.971104  5  7  4  87       
PG29  21831.155629  -4781.708308 -14478.707136   -600.510497  5  2  6  86       
PG30  -2366.861431  22510.861194 -13564.546090   -515.418328  4  6  5  94       
PG31 -10484.877750 -24017.071409  -2676.397499   -216.730503  7  7  5 103       
PG32    698.439043 -15378.943597  21833.137305   -483.866464  3  6  2  87       
EOF
